STARLINK-1645           
1 47622U 21012C   23338.69377328  .00000990  00000+0  85381-4 0  9997
2 47622  53.0534 179.6493 0001384  91.4477 268.6671 15.06396823155482
STARLINK-1655           
1 47623U 21012D   23339.36971456  .00003030  00000+0  22229-3 0  9994
2 47623  53.0547 111.6223 0001510 109.2043 250.9110 15.06387629155994
STARLINK-1669           
1 47624U 21012E   23338.50120786 -.00000287  00000+0 -36536-6 0  9994
2 47624  53.0521 160.5199 0001087 106.9648 253.1460 15.06387089155753
STARLINK-1704           
1 47625U 21012F   23338.56846478  .00004909  00000+0  34831-3 0  9990
2 47625  53.0532 180.2129 0001400  88.2047 271.9102 15.06392795154954
STARLINK-1761           
1 47626U 21012G   23338.68735190  .00000314  00000+0  40004-4 0  9998
2 47626  53.0531 179.6870 0001371  98.7146 261.3998 15.06389515155483
STARLINK-1972           
1 47627U 21012H   23339.49412002  .00005605  00000+0  39509-3 0  9998
2 47627  53.0556  81.0662 0001219 110.6501 249.4619 15.06381517156411
STARLINK-1973           
1 47628U 21012J   23338.72326066  .00000030  00000+0  20888-4 0  9996
2 47628  53.0534 179.5171 0001415  81.1627 278.9522 15.06392763155497
STARLINK-1974           
1 47629U 21012K   23339.50195511  .00004945  00000+0  35054-3 0  9992
2 47629  53.0546  56.0259 0001328  96.9205 263.1935 15.06412209156770
STARLINK-1983           
1 47630U 21012L   23339.45955787  .00001326  00000+0  10791-3 0  9998
2 47630  53.0543 156.3095 0001349  99.2193 260.8948 15.06395755155364
STARLINK-1992           
1 47632U 21012N   23339.45262782  .00001946  00000+0  14943-3 0  9997
2 47632  53.0539  81.2509 0001276  85.7021 274.4113 15.06413450156411
STARLINK-2009           
1 47633U 21012P   23338.67534497  .00000212  00000+0  33132-4 0  9993
2 47633  53.0526 179.7736 0001271  88.3635 271.7499 15.06394479155503
STARLINK-2010           
1 47634U 21012Q   23338.71683400 -.00000308  00000+0 -17550-5 0  9993
2 47634  53.0520 179.5552 0001632  88.1292 271.9884 15.06397082155480
STARLINK-2012           
1 47635U 21012R   23339.47199261  .00001292  00000+0  10564-3 0  9992
2 47635  53.0542  81.1627 0001763  80.3334 279.7854 15.06401047156416
STARLINK-2013           
1 47636U 21012S   23338.50489248  .00001704  00000+0  13327-3 0  9991
2 47636  53.0524 160.5056 0001404  82.1017 278.0132 15.06394542155731
STARLINK-2014           
1 47637U 21012T   23339.47061308  .00007021  00000+0  49007-3 0  9994
2 47637  53.0537 156.1681 0001927 127.3583 232.7582 15.06379329155373
STARLINK-2015           
1 47638U 21012U   23339.46832011  .00001048  00000+0  89250-4 0  9999
2 47638  53.0550  81.1834 0001157  69.4244 290.6868 15.06404538156429
STARLINK-2016           
1 47639U 21012V   23338.51963616  .00000504  00000+0  52769-4 0  9992
2 47639  53.0539 160.4427 0001706  73.7322 286.3855 15.06394222155729
STARLINK-2018           
1 47640U 21012W   23337.98334905 -.00000139  00000+0  95778-5 0  9990
2 47640  53.0525 182.8491 0001623  86.0378 274.0796 15.06379763155384
STARLINK-2019           
1 47641U 21012X   23339.45355082 -.00000299  00000+0 -11824-5 0  9992
2 47641  53.0541  81.2453 0001434  98.4628 261.6524 15.06390385156417
STARLINK-2020           
1 47642U 21012Y   23338.91817769 -.00000043  00000+0  16040-4 0  9998
2 47642  53.0524 173.6494 0001507  96.6269 263.4891 15.06392899155588
STARLINK-2022           
1 47643U 21012Z   23338.66707339 -.00005292  00000+0 -33673-3 0  9994
2 47643  53.0543 159.7768 0001196 101.9719 258.1404 15.06393040155246
STARLINK-2026           
1 47644U 21012AA  23338.94537883  .00010809  00000+0  74420-3 0  9994
2 47644  53.0521 178.5301 0001379 144.9092 215.1988 15.06361721155015
STARLINK-2027           
1 47645U 21012AB  23338.90023440 -.00000134  00000+0  99182-5 0  9995
2 47645  53.0537 148.9692 0001469 110.3490 249.7657 15.06399047155418
STARLINK-2028           
1 47646U 21012AC  23338.55514238  .00000379  00000+0  44354-4 0  9997
2 47646  53.0550 115.5189 0001334 102.2702 257.8436 15.06392744155852
STARLINK-2030           
1 47647U 21012AD  23338.55834072  .00000503  00000+0  52652-4 0  9998
2 47647  53.0534 180.2642 0001465  93.8999 266.2157 15.06391591155477
STARLINK-2031           
1 47648U 21012AE  23338.88084098 -.00002007  00000+0 -11589-3 0  9996
2 47648  53.0548 158.8210 0000946 110.8891 249.2200 15.06393665155282
STARLINK-2032           
1 47649U 21012AF  23338.55281059  .00003009  00000+0  22089-3 0  9995
2 47649  53.0536 160.2924 0001512  79.2083 280.9076 15.06390790155234
STARLINK-2033           
1 47650U 21012AG  23338.53806131 -.00003724  00000+0 -23128-3 0  9990
2 47650  53.0537 160.3557 0001272  81.1949 278.9184 15.06398604155224
STARLINK-2035           
1 47651U 21012AH  23337.84695564  .00002152  00000+0  16326-3 0  9994
2 47651  53.0538 183.5107 0002070  72.8075 287.3141 15.06412342155366
STARLINK-2036           
1 47652U 21012AJ  23339.00001157  .00042310  00000+0  28443-2 0  9996
2 47652  53.0521 178.2768 0001316  97.4772 284.3023 15.06373996155011
STARLINK-2037           
1 47653U 21012AK  23338.92508791  .00001222  00000+0  10095-3 0  9995
2 47653  53.0537 158.6198 0001463  86.0042 274.1114 15.06395962155289
STARLINK-2038           
1 47654U 21012AL  23338.66892738  .00000600  00000+0  59196-4 0  9999
2 47654  53.0537 179.7722 0001544  98.8290 261.2874 15.06394041155482
STARLINK-2039           
1 47655U 21012AM  23338.66154531 -.00000166  00000+0  77749-5 0  9995
2 47655  53.0528 179.8044 0001510  94.5383 265.5779 15.06394781155482
STARLINK-2040           
1 47656U 21012AN  23338.47908901  .00000335  00000+0  41401-4 0  9995
2 47656  53.0529 160.6249 0001419  88.1837 271.9315 15.06391650155737
STARLINK-2041           
1 47657U 21012AP  23338.68366308  .00001787  00000+0  13883-3 0  9992
2 47657  53.0525 179.7051 0001630  81.9330 278.1844 15.06393691155485
STARLINK-2042           
1 47658U 21012AQ  23338.67629147  .00003918  00000+0  28178-3 0  9996
2 47658  53.0531 179.7398 0001372  84.7788 275.3357 15.06399966155500
STARLINK-2043           
1 47659U 21012AR  23339.49825887  .00004048  00000+0  29037-3 0  9997
2 47659  53.0552  56.0489 0001297 105.3931 254.7201 15.06417455156760
STARLINK-2044           
1 47660U 21012AS  23339.18596486  .00001787  00000+0  13886-3 0  9997
2 47660  53.0558  48.0759 0001446 132.4230 227.6882 15.06394756156850
STARLINK-2051           
1 47661U 21012AT  23339.50377334  .00001787  00000+0  13881-3 0  9998
2 47661  53.0526 156.0205 0001317  88.3324 271.7816 15.06401713155377
STARLINK-2052           
1 47662U 21012AU  23338.88729167  .00000207  00000+0  32823-4 0  9998
2 47662  53.0533 158.7872 0001386 106.2713 253.8428 15.06384602155280
STARLINK-2053           
1 47663U 21012AV  23339.48171579  .00006021  00000+0  42299-3 0  9991
2 47663  53.0555  76.4429 0001140  90.5747 269.5372 15.06381165156485
STARLINK-2054           
1 47664U 21012AW  23338.88823697  .00000783  00000+0  71390-4 0  9994
2 47664  53.0521 158.7853 0001102  82.8130 277.2984 15.06413267155283
STARLINK-2056           
1 47665U 21012AX  23338.86842415 -.00000200  00000+0  54430-5 0  9994
2 47665  53.0539 153.9241 0001418  94.5794 265.5357 15.06390064155347
STARLINK-2057           
1 47666U 21012AY  23339.46188194  .00003164  00000+0  23117-3 0  9996
2 47666  53.0542 151.5634 0000699 157.7161 202.3859 15.06407992155437
STARLINK-2058           
1 47667U 21012AZ  23338.72052129  .00000159  00000+0  29558-4 0  9990
2 47667  53.0522 179.5401 0001686  88.6464 271.4718 15.06397197155473
STARLINK-2059           
1 47668U 21012BA  23339.49269373 -.00011222  00000+0 -73512-3 0  9990
2 47668  53.0523 156.0715 0001339  95.9067 264.2075 15.06425938155378
STARLINK-2062           
1 47670U 21012BC  23338.51226134  .00001182  00000+0  98266-4 0  9999
2 47670  53.0538 160.4749 0001453  83.9047 276.2107 15.06393826155734
STARLINK-2064           
1 47671U 21012BD  23338.89191229  .00003901  00000+0  28072-3 0  9995
2 47671  53.0530 158.7673 0001592  89.0798 271.0373 15.06389246155286
STARLINK-2065           
1 47672U 21012BE  23338.44585970  .00000667  00000+0  63686-4 0  9994
2 47672  53.0546 150.4933 0001412 102.3972 257.7175 15.06403201155858
STARLINK-2066           
1 47673U 21012BF  23339.51114955  .00002977  00000+0  21863-3 0  9991
2 47673  53.0530 155.9894 0001467 100.4549 259.6605 15.06403399155371
STARLINK-2067           
1 47674U 21012BG  23338.92782093 -.00000758  00000+0 -31943-4 0  9998
2 47674  53.0533 158.5880 0002610 137.4599 222.6593 15.06399878155287
STARLINK-2078           
1 47675U 21012BH  23338.92140152  .00000575  00000+0  57493-4 0  9996
2 47675  53.0541 158.6375 0001530  88.3576 271.7588 15.06394114155283
STARLINK-2083           
1 47676U 21012BJ  23339.18220341  .00009284  00000+0  64160-3 0  9999
2 47676  53.0559  47.4672 0001272 108.1248 251.9879 15.06383815156862
STARLINK-2090           
1 47677U 21012BK  23338.57581956 -.00000096  00000+0  12463-4 0  9997
2 47677  53.0526 180.1817 0001697  64.8293 295.2872 15.06398420154952
STARLINK-2095           
1 47679U 21012BM  23339.00340398  .00000560  00000+0  56489-4 0  9992
2 47679  53.0538 178.2687 0001378  94.8702 265.2444 15.06385079155021
FLOCK 4S-46             
1 47684U 21006EK  23339.15385740  .00022163  00000+0  62273-3 0  9997
2 47684  97.3689  37.7869 0003895 186.9442 173.1749 15.36531302158928
FLOCK 4S-47             
1 47685U 21006EL  23339.13908378  .00023887  00000+0  67162-3 0  9990
2 47685  97.3623  37.0051 0004639 182.3510 177.7713 15.36490961158898
FLOCK 4S-44             
1 47686U 21006EM  23338.59779380  .00022629  00000+0  63365-3 0  9993
2 47686  97.3674  37.3915 0007761 187.0607 173.0529 15.36611665158839
FLOCK 4S-43             
1 47687U 21006EN  23338.15367593  .00022620  00000+0  63057-3 0  9994
2 47687  97.3621  36.0783 0003360 204.3287 155.7799 15.36775315159705
